{
  "norad_id": 65962,
  "name": "KUIPER-00136",
  "history": [
    {
      "epoch": "2026-03-28T18:03:19.203840",
      "apogee_km": 630.076274618782,
      "perigee_km": 629.0005964394277,
      "latitude_deg": -41.81909607565688,
      "longitude_deg": 128.4213375998661,
      "semi_major_axis_km": 7007.675435529104,
      "eccentricity": 7.675e-05,
      "inclination_deg": 51.8996,
      "raan_deg": 263.8522,
      "arg_perigee_deg": 137.5907,
      "mean_anomaly_deg": 222.5115,
      "mean_motion_rev_day": 14.79932111
    }
  ]
}